{
  "type": "FeatureCollection",
  "features": [
    {"type":"Feature","properties":{"name":"Dhaka1"},"geometry":{"type":"Point","coordinates":[90.4125181,23.810332]}},
    {"type":"Feature","properties":{"name":"Faridpur"},"geometry":{"type":"Point","coordinates":[89.6308921,23.5423919]}},
    {"type":"Feature","properties":{"name":"Gazipur"},"geometry":{"type":"Point","coordinates":[90.4125181,24.0958171]}},
    {"type":"Feature","properties":{"name":"Gopalganj"},"geometry":{"type":"Point","coordinates":[89.82661,23.00509]}},
    {"type":"Feature","properties":{"name":"Jamalpur"},"geometry":{"type":"Point","coordinates":[89.93778,24.93753]}},
    {"type":"Feature","properties":{"name":"Kishoreganj"},"geometry":{"type":"Point","coordinates":[90.9820668,24.4260457]}},
    {"type":"Feature","properties":{"name":"Madaripur"},"geometry":{"type":"Point","coordinates":[90.1869644,23.2393346]}},
    {"type":"Feature","properties":{"name":"Manikganj"},"geometry":{"type":"Point","coordinates":[90.0003228,23.861651]}},
    {"type":"Feature","properties":{"name":"Munshiganj"},"geometry":{"type":"Point","coordinates":[90.4126621,23.4980931]}},
    {"type":"Feature","properties":{"name":"Mymensingh"},"geometry":{"type":"Point","coordinates":[90.3983829,24.7434484]}},
    {"type":"Feature","properties":{"name":"Narayanganj"},"geometry":{"type":"Point","coordinates":[90.4997973,23.6226398]}},
    {"type":"Feature","properties":{"name":"Narsingdi"},"geometry":{"type":"Point","coordinates":[90.7860057,24.134378]}},
    {"type":"Feature","properties":{"name":"Netrokona"},"geometry":{"type":"Point","coordinates":[90.8656415,24.8103284]}},
    {"type":"Feature","properties":{"name":"Rajbari"},"geometry":{"type":"Point","coordinates":[89.5874819,23.715134]}},
    {"type":"Feature","properties":{"name":"Shariatpur"},"geometry":{"type":"Point","coordinates":[90.4347711,23.2423214]}},
    {"type":"Feature","properties":{"name":"Sherpur"},"geometry":{"type":"Point","coordinates":[90.1494904,25.0746235]}},
    {"type":"Feature","properties":{"name":"Tangail"},"geometry":{"type":"Point","coordinates":[89.9113057,24.244968]}},

    {"type":"Feature","properties":{"name":"Bogra"},"geometry":{"type":"Point","coordinates":[89.3701078,24.8435589]}},
    {"type":"Feature","properties":{"name":"Joypurhat"},"geometry":{"type":"Point","coordinates":[89.0944937,25.0947349]}},
    {"type":"Feature","properties":{"name":"Naogaon"},"geometry":{"type":"Point","coordinates":[88.94875,24.80418]}},
    {"type":"Feature","properties":{"name":"Natore"},"geometry":{"type":"Point","coordinates":[89.00028,24.41056]}},
    {"type":"Feature","properties":{"name":"Pabna"},"geometry":{"type":"Point","coordinates":[89.23365,23.99852]}},
    {"type":"Feature","properties":{"name":"Rajshahi"},"geometry":{"type":"Point","coordinates":[88.60116,24.37418]}},
    {"type":"Feature","properties":{"name":"Sirajganj"},"geometry":{"type":"Point","coordinates":[89.70068,24.4534]}},
    {"type":"Feature","properties":{"name":"Dinajpur"},"geometry":{"type":"Point","coordinates":[88.6351758,25.6279123]}},
    {"type":"Feature","properties":{"name":"Gaibandha"},"geometry":{"type":"Point","coordinates":[89.5429652,25.3296928]}},
    {"type":"Feature","properties":{"name":"Kurigram"},"geometry":{"type":"Point","coordinates":[89.63617,25.8072414]}},
    {"type":"Feature","properties":{"name":"Lalmonirhat"},"geometry":{"type":"Point","coordinates":[89.43998,25.92016]}},
    {"type":"Feature","properties":{"name":"Nilphamari"},"geometry":{"type":"Point","coordinates":[88.85601,25.93179]}},
    {"type":"Feature","properties":{"name":"Panchagarh"},"geometry":{"type":"Point","coordinates":[88.55416,26.34110]}},
    {"type":"Feature","properties":{"name":"Rangpur"},"geometry":{"type":"Point","coordinates":[89.24446,25.75581]}},
    {"type":"Feature","properties":{"name":"Thakurgaon"},"geometry":{"type":"Point","coordinates":[88.46168,26.03369]}},

    {"type":"Feature","properties":{"name":"Barguna"},"geometry":{"type":"Point","coordinates":[90.1120696,22.0952915]}},
    {"type":"Feature","properties":{"name":"Barisal"},"geometry":{"type":"Point","coordinates":[90.3465971,22.7029212]}},
    {"type":"Feature","properties":{"name":"Bhola"},"geometry":{"type":"Point","coordinates":[90.7101023,22.1785315]}},
    {"type":"Feature","properties":{"name":"Jhalokati"},"geometry":{"type":"Point","coordinates":[90.1869644,22.57208]}},
    {"type":"Feature","properties":{"name":"Patuakhali"},"geometry":{"type":"Point","coordinates":[90.32987,22.35963]}},
    {"type":"Feature","properties":{"name":"Pirojpur"},"geometry":{"type":"Point","coordinates":[89.97846,22.59877]}},

    {"type":"Feature","properties":{"name":"Bandarban"},"geometry":{"type":"Point","coordinates":[92.3686321,21.8311002]}},
    {"type":"Feature","properties":{"name":"Brahmanbaria"},"geometry":{"type":"Point","coordinates":[91.1115014,23.9608181]}},
    {"type":"Feature","properties":{"name":"Chandpur"},"geometry":{"type":"Point","coordinates":[90.8517846,23.2513148]}},
    {"type":"Feature","properties":{"name":"Chittagong"},"geometry":{"type":"Point","coordinates":[91.8123324,22.3475365]}},
    {"type":"Feature","properties":{"name":"Comilla"},"geometry":{"type":"Point","coordinates":[91.186911,23.46188]}},
    {"type":"Feature","properties":{"name":"Cox’s Bazar"},"geometry":{"type":"Point","coordinates":[92.0077316,21.4394636]}},
    {"type":"Feature","properties":{"name":"Feni"},"geometry":{"type":"Point","coordinates":[91.3975831,23.0159132]}},
    {"type":"Feature","properties":{"name":"Khagrachhari"},"geometry":{"type":"Point","coordinates":[91.949021,23.1321751]}},
    {"type":"Feature","properties":{"name":"Lakshmipur"},"geometry":{"type":"Point","coordinates":[90.8281907,22.9446744]}},
    {"type":"Feature","properties":{"name":"Noakhali"},"geometry":{"type":"Point","coordinates":[91.0973184,22.8723789]}},
    {"type":"Feature","properties":{"name":"Rangamati"},"geometry":{"type":"Point","coordinates":[92.2984134,22.7324173]}},

    {"type":"Feature","properties":{"name":"Habiganj"},"geometry":{"type":"Point","coordinates":[91.4506565,24.4771236]}},
    {"type":"Feature","properties":{"name":"Maulvibazar"},"geometry":{"type":"Point","coordinates":[91.7314903,24.3095344]}},
    {"type":"Feature","properties":{"name":"Sunamganj"},"geometry":{"type":"Point","coordinates":[91.3991627,25.0714535]}},
    {"type":"Feature","properties":{"name":"Sylhet"},"geometry":{"type":"Point","coordinates":[91.8611011,24.904539]}},
    {"type":"Feature","properties":{"name":"Bagerhat"},"geometry":{"type":"Point","coordinates":[89.7895478,22.6602436]}},
    {"type":"Feature","properties":{"name":"Chuadanga"},"geometry":{"type":"Point","coordinates":[88.8263006,23.6160512]}},
    {"type":"Feature","properties":{"name":"Jessore"},"geometry":{"type":"Point","coordinates":[89.2181664,23.1634014]}},
    {"type":"Feature","properties":{"name":"Jhenaidah"},"geometry":{"type":"Point","coordinates":[89.1726031,23.5449873]}},
    {"type":"Feature","properties":{"name":"Khulna"},"geometry":{"type":"Point","coordinates":[89.5403279,22.845641]}},
    {"type":"Feature","properties":{"name":"Kushtia"},"geometry":{"type":"Point","coordinates":[89.1099368,23.8906995]}},
    {"type":"Feature","properties":{"name":"Magura"},"geometry":{"type":"Point","coordinates":[89.4198305,23.4854655]}},
    {"type":"Feature","properties":{"name":"Meherpur"},"geometry":{"type":"Point","coordinates":[88.6723578,23.8051991]}},
    {"type":"Feature","properties":{"name":"Narail"},"geometry":{"type":"Point","coordinates":[89.4990219,23.1656982]}},
    {"type":"Feature","properties":{"name":"Satkhira"},"geometry":{"type":"Point","coordinates":[89.1114525,22.3154812]}}
  ]
}

